{"spkid": "50763361", "covariance": {"elements": [{"label": "e", "units": null, "title": "eccentricity", "value": ".1283102443624386", "name": "e", "sigma": 2.13608056002894e-07}, {"sigma": 2.02892551681707e-07, "name": "q", "value": ".974410349617114", "title": "perihelion distance", "units": "au", "label": "q"}, {"name": "tp", "sigma": 0.000299200331540967, "units": "TDB", "title": "time of perihelion passage", "value": "2459884.647803234845", "label": "tp"}, {"label": "node", "sigma": 8.35081849609246e-06, "name": "om", "units": "deg", "title": "longitude of the ascending node", "value": "230.4989332914458"}, {"label": "peri", "title": "argument of perihelion", "value": "202.7650130555236", "units": "deg", "sigma": 0.000208890749301252, "name": "w"}, {"units": "deg", "value": "10.62573640936545", "title": "inclination", "sigma": 1.60938116587432e-05, "name": "i", "label": "i"}], "data": [["4.562840158933544E-14", "-4.333703371062339E-14", "6.382489940336746E-11", "-1.638507885631367E-12", "4.457743055326333E-11", "3.102945104947514E-12"], ["-4.333703371062339E-14", "4.116538752791428E-14", "-6.059057999421791E-11", "1.558735040851281E-12", "-4.232726994331966E-11", "-2.945064998345608E-12"], ["6.382489940336746E-11", "-6.059057999421791E-11", "8.952083839422457E-8", "-2.269194630528035E-9", "6.248241598388531E-8", "4.34927014188326E-9"], ["-1.638507885631367E-12", "1.558735040851281E-12", "-2.269194630528035E-9", "6.973616955467991E-11", "-1.594819802181811E-9", "-1.232431103499015E-10"], ["4.457743055326333E-11", "-4.232726994331966E-11", "6.248241598388531E-8", "-1.594819802181811E-9", "4.363534514363854E-8", "3.04410062033064E-9"], ["3.102945104947514E-12", "-2.945064998345608E-12", "4.34927014188326E-9", "-1.232431103499015E-10", "3.04410062033064E-9", "2.590107737070992E-10"]], "labels": ["e", "q", "tp", "node", "peri", "i"], "epoch": "2459742.5"}, "elements": [{"label": "e", "name": "e", "sigma": "2.1286E-7", "units": null, "value": ".1283117766704493", "title": "eccentricity"}, {"label": "a", "units": "au", "title": "semi-major axis", "value": "1.11779912846527", "sigma": "3.9753E-8", "name": "a"}, {"sigma": "2.0335E-7", "name": "q", "value": ".9743723363312109", "title": "perihelion distance", "units": "au", "label": "q"}, {"label": "i", "name": "i", "sigma": "1.6098E-5", "units": "deg", "title": "inclination; angle with respect to x-y ecliptic plane", "value": "10.62561954622875"}, {"label": "node", "name": "om", "sigma": "8.3173E-6", "units": "deg", "title": "longitude of the ascending node", "value": "230.480772198901"}, {"value": "202.7653887886142", "title": "argument of perihelion", "units": "deg", "name": "w", "sigma": ".00020904", "label": "peri"}, {"label": "M", "name": "ma", "sigma": ".00030901", "title": "mean anomaly", "value": "17.42803663320786", "units": "deg"}, {"title": "time of perihelion passage", "value": "2461179.602706602583", "units": "TDB", "sigma": ".00036941", "name": "tp", "label": "tp"}, {"label": "period", "sigma": "2.3027E-5", "name": "per", "title": "sidereal orbital period", "value": "431.6622567074219", "units": "d"}, {"label": "n", "name": "n", "sigma": "4.4489E-8", "units": "deg/d", "title": "mean motion", "value": ".8339853540727927"}, {"label": "Q", "units": "au", "value": "1.261225920599328", "title": "aphelion distance", "sigma": "4.4853E-8", "name": "ad"}], "epoch": "2461200.5"}